ONEWEB-0668             
1 56711U 23068B   24200.89257167  .00000158  00000+0  37995-3 0  9991
2 56711  87.9101   7.7973 0001621 113.4713 246.6588 13.16592828 59896
ONEWEB-0676             
1 56712U 23068C   24200.87278056  .00000022  00000+0  24412-4 0  9991
2 56712  87.9108   7.8092 0002370  87.6515 272.4887 13.16596589 59810
ONEWEB-0677             
1 56713U 23068D   24200.63337286 -.00000035  00000+0 -11820-3 0  9991
2 56713  87.9178  53.4428 0002041  90.5535 269.5832 13.20771089 57593
ONEWEB-0678             
1 56714U 23068E   24200.80159787 -.00000031  00000+0 -11648-3 0  9993
2 56714  87.9023  38.1397 0001847  76.0018 284.1318 13.15548312 57469
ONEWEB-0679             
1 56715U 23068F   24200.91791259  .00000112  00000+0  25811-3 0  9997
2 56715  87.9104   7.8029 0002282 108.6479 251.4900 13.16592881 59841
ONEWEB-0680             
1 56716U 23068G   24200.87357700  .00000048  00000+0  85245-4 0  9998
2 56716  87.9281  23.0301 0001615 116.5591 243.5709 13.21824820 58848
ONEWEB-0681             
1 56717U 23068H   24200.88383134 -.00000062  00000+0 -18284-3 0  9996
2 56717  87.9278  23.0076 0003004  84.3505 275.7971 13.21827541 58835
ONEWEB-0682             
1 56718U 23068J   24200.59956834  .00000081  00000+0  18048-3 0  9995
2 56718  87.9019  38.2210 0001785 105.1856 254.9471 13.15547191 57603
